<?xml version="1.0" encoding="UTF-8"?>
<kml xmlns="http://www.opengis.net/kml/2.2" xmlns:gx="http://www.google.com/kml/ext/2.2" xmlns:kml="http://www.opengis.net/kml/2.2" xmlns:atom="http://www.w3.org/2005/Atom">
<Document>
	<name>Creeks.kml</name>
	<Style id="sh_ylw-pushpin">
		<IconStyle>
			<scale>1.3</scale>
			<Icon>
				<href>http://maps.google.com/mapfiles/kml/pushpin/ylw-pushpin.png</href>
			</Icon>
			<hotSpot x="20" y="2" xunits="pixels" yunits="pixels"/>
		</IconStyle>
		<BalloonStyle>
		</BalloonStyle>
		<LineStyle>
			<color>ff0000aa</color>
		</LineStyle>
		<PolyStyle>
			<color>800000ff</color>
		</PolyStyle>
	</Style>
	<StyleMap id="msn_ylw-pushpin">
		<Pair>
			<key>normal</key>
			<styleUrl>#sn_ylw-pushpin</styleUrl>
		</Pair>
		<Pair>
			<key>highlight</key>
			<styleUrl>#sh_ylw-pushpin</styleUrl>
		</Pair>
	</StyleMap>
	<Style id="sn_ylw-pushpin">
		<IconStyle>
			<scale>1.1</scale>
			<Icon>
				<href>http://maps.google.com/mapfiles/kml/pushpin/ylw-pushpin.png</href>
			</Icon>
			<hotSpot x="20" y="2" xunits="pixels" yunits="pixels"/>
		</IconStyle>
		<BalloonStyle>
		</BalloonStyle>
		<LineStyle>
			<color>ff0000aa</color>
		</LineStyle>
		<PolyStyle>
			<color>800000ff</color>
		</PolyStyle>
	</Style>
	<Placemark>
		<name>Creeks</name>
		<styleUrl>#msn_ylw-pushpin</styleUrl>
		<Polygon>
			<tessellate>1</tessellate>
			<outerBoundaryIs>
				<LinearRing>
					<coordinates>
						-78.69894783225966,35.72334898878741,0 -78.69879166460807,35.72397019923073,0 -78.69873473068908,35.7244207956798,0 -78.69859614598158,35.72480568123758,0 -78.69861418577305,35.72507735049366,0 -78.69853276658542,35.72552394160768,0 -78.6983547976553,35.72572530574627,0 -78.69805832041436,35.72584650324189,0 -78.69773936095467,35.7259706737177,0 -78.69751053010138,35.72614451523006,0 -78.69726151496339,35.72628063427742,0 -78.69716158566756,35.72646250939768,0 -78.69728725658267,35.72639893850034,0 -78.69749142493366,35.72628688884642,0 -78.6977289261243,35.72608569324174,0 -78.6979539532818,35.72598428502496,0 -78.69825264572906,35.72589634014973,0 -78.69836481697249,35.72604258905937,0 -78.69819114879283,35.72652666945238,0 -78.69817309687035,35.72676170861556,0 -78.6981294522771,35.72702052184208,0 -78.69808446357573,35.72724497995293,0 -78.69822589809023,35.72713344174685,0 -78.69829277415475,35.72701296960713,0 -78.69835273468571,35.72682177703762,0 -78.69840458556723,35.72645820642689,0 -78.69852060134875,35.72604438616719,0 -78.69864746348807,35.7257845793774,0 -78.69865941761771,35.72557178879904,0 -78.69876205587528,35.7253681163776,0 -78.69886172818737,35.72525661167864,0 -78.698809085208,35.72519326617349,0 -78.69879689683438,35.72508210747775,0 -78.69888452301974,35.72463741230174,0 -78.69898386031639,35.72396633336524,0 -78.69903785203397,35.72333839555517,0 -78.69894783225966,35.72334898878741,0 
					</coordinates>
				</LinearRing>
			</outerBoundaryIs>
		</Polygon>
	</Placemark>
</Document>
</kml>
