<kml xmlns="http://www.opengis.net/kml/2.2" xmlns:atom="http://www.w3.org/2005/Atom" xmlns:gx="http://www.google.com/kml/ext/2.2">
  <Document>
    <Name>path</Name>
    <Placemark>
      <Polygon>
        <gx:altitudeMode>relativeToGround</gx:altitudeMode>
        <outerBoundaryIs>
          <LinearRing>
            <coordinates>-78.69612785839156,35.72722686121003,0
-78.6961791929763,35.72723000076871,0
-78.69622105154122,35.72722884663681,0
-78.69628462245359,35.72723664284183,0
-78.69634655030556,35.72735961782143,0
-78.69638683208859,35.72742730970374,0
-78.69644842297537,35.72742850885884,0
-78.69652774886127,35.72742761305298,0
-78.69660911024266,35.727424609014655,0
-78.69668494853096,35.727423608617926,0
-78.69675086146756,35.72742311259967,0
-78.69681338667087,35.727420920974424,0
-78.69689227613635,35.727416116125,0
-78.6969739850693,35.727412221072015,0
-78.69702958367525,35.727408821157276,0
-78.69710612720044,35.727404124853024,0
-78.69718641509779,35.72739852570656,0
-78.6972520034346,35.7273938346089,0
-78.69731214972639,35.72738853069303,0
-78.69736877083581,35.72738392901336,0
-78.69743255434344,35.72737894940032,0
-78.69749673519297,35.72737185154248,0
-78.69755761608477,35.72736494287027,0
-78.69761969483747,35.72735865623804,0
-78.69767979471334,35.727351468955305,0
-78.6977581709648,35.727340902934706,0
-78.69778218522615,35.72733684606235,0
-78.69785285527031,35.727329361081466,0
-78.697933964216,35.72731917313274,0
-78.69800719048946,35.727308956758726,0
-78.69808381691911,35.727299742786,0
-78.69814381799412,35.727293679735915,0
-78.69820803036589,35.72728426425206,0
-78.69826754089118,35.7272765629006,0
-78.69832542462723,35.727269164996045,0
-78.69838456669132,35.727261459659125,0
-78.69844039694651,35.72725454483319,0
-78.69849790708048,35.7272485547876,0
-78.6985583017179,35.727241444338695,0
-78.6986162711059,35.727235447570834,0
-78.69867471997372,35.72722913317324,0
-78.69873073659907,35.72722433177112,0
-78.69881243372693,35.72721753201041,0
-78.69888912139284,35.72721111895199,0
-78.69896635958163,35.727206812666026,0
-78.69904815074683,35.72720392325477,0
-78.69912672437344,35.72719871878669,0
-78.69920091274886,35.72719461448107,0
-78.69927655132116,35.72719141735168,0
-78.69935877124499,35.727187208795975,0
-78.69941588829107,35.727187809339156,0
-78.69947732331714,35.727186821589314,0
-78.69953691033159,35.727190545594155,0
-78.69956506963935,35.72719370373052,0
-78.69958704665903,35.7272017556514,0
-78.69960955263473,35.72721176654849,0
-78.69966467627223,35.727244341650994,0
-78.69968332178833,35.72725603748314,0
-78.6997477651021,35.72729020956705,0
-78.6998092915463,35.72731907571854,0
-78.6998299008903,35.72732843638676,0
-78.69984850855734,35.727339179125515,0
-78.69990908999213,35.72736962077727,0
-78.6999699472947,35.727401405910406,0
-78.70002384725741,35.72743172362656,0
-78.70004250810423,35.727443278896324,0
-78.70006436861343,35.72745433776598,0
-78.70011486415403,35.72749070809603,0
-78.70017228353757,35.72753404853402,0
-78.70019221594855,35.72754854508274,0
-78.70021273438958,35.72756054200154,0
-78.70022754097614,35.72757274875593,0
-78.70024674068304,35.72758576687323,0
-78.70027844917364,35.72761063910994,0
-78.70032759632491,35.72765356984803,0
-78.70037656726365,35.72770264232866,0
-78.70042487825658,35.72775315565066,0
-78.70044104220706,35.727768335319155,0
-78.70048315994245,35.72781757851063,0
-78.70049776943033,35.72783615239343,0
-78.70054674222737,35.72789072238913,0
-78.70057952740825,35.727926637729404,0
-78.70059508179924,35.72794595755238,0
-78.70064439286331,35.727997966369905,0
-78.70068728728566,35.72804087235942,0
-78.70073205190303,35.72809133298802,0
-78.70078123520206,35.72814552713747,0
-78.70079733287702,35.72816427357129,0
-78.70081153458334,35.72818336844651,0
-78.70082374763047,35.728202960557944,0
-78.70083446993694,35.72822239999882,0
-78.7008616194346,35.72828030965346,0
-78.70086944450232,35.72829843791134,0
-78.70087519979373,35.72831610942278,0
-78.70087772814107,35.72833528617251,0
-78.70087672374332,35.72835444173626,0
-78.70087841522798,35.72837905869163,0
-78.70087170080897,35.72844718308497,0
-78.70086550501163,35.72849375045858,0
-78.70086238091697,35.728518545547345,0
-78.70085549315839,35.728541907860915,0
-78.70084862612637,35.72856017818653,0
-78.70084320260196,35.728581836662634,0
-78.70083351499964,35.72860054813399,0
-78.70082578817743,35.72862204343108,0
-78.70079287380014,35.728677770699875,0
-78.70076046423915,35.728722740483704,0
-78.70074927591388,35.728739487478734,0
-78.70072867857718,35.728778081557515,0
-78.70071949099663,35.72879791365784,0
-78.70070959797437,35.728821812211905,0
-78.70067354597774,35.728846342501114,0
-78.7006712462142,35.72885035700006,0
-78.70066696675975,35.7288632045275,0
-78.70065932373032,35.72887734890112,0
-78.70065074990382,35.728890935404074,0
-78.70064187102356,35.728907030309124,0
-78.70063086264015,35.728923618146574,0
-78.70062006036333,35.72893734629748,0
-78.70061072860364,35.72895127355379,0
-78.70057831007875,35.72900870598506,0
-78.70056641591853,35.729029311343105,0
-78.70054259460144,35.72906353257467,0
-78.70053225055926,35.72908116087714,0
-78.70051064852083,35.729113137935094,0
-78.70049965853953,35.729132991749,0
-78.70047741748633,35.72916345878725,0
-78.70045534774279,35.729198239352584,0
-78.70043235620545,35.72923985251822,0
-78.7004048811942,35.729280755268185,0
-78.70037128480347,35.729337249203155,0
-78.70035898608575,35.72935796534218,0
-78.70034976896817,35.72937810049643,0
-78.7003242132908,35.72942556540316,0
-78.700313011087,35.72944312024924,0
-78.70029513921527,35.72947814407055,0
-78.70028762268791,35.72949612652407,0
-78.7002816417036,35.7295132381131,0
-78.7002745608719,35.72953021546097,0
-78.70026468986799,35.72954835708678,0
-78.70025530216311,35.729568983784766,0
-78.70023236007378,35.729631514107105,0
-78.70021932757544,35.72967287257621,0
-78.70020513415653,35.72973114516973,0
-78.70020108472741,35.72974829198168,0
-78.70019844316627,35.72976440606835,0
-78.70019488005033,35.729780248770396,0
-78.7001778653432,35.72983780025862,0
-78.70017451963015,35.729855004583996,0
-78.70017016534563,35.72987220025833,0
-78.70016680587278,35.72988945730449,0
-78.70016246781829,35.72990558743231,0
-78.70015286466258,35.72995600379179,0
-78.70014960914266,35.72997264507562,0
-78.70014497622489,35.729990052447455,0
-78.70013709368503,35.73001030161228,0
-78.70011871590707,35.73007561921914,0
-78.70011321989735,35.730096934590584,0
-78.7000978543259,35.73014063228094,0
-78.70009106516504,35.73016171039117,0
-78.70007215752854,35.73020172166847,0
-78.70005220017916,35.73023823388443,0
-78.7000215505841,35.73028170269301,0
-78.70000723937632,35.73030116814944,0
-78.6999770397537,35.7303363862924,0
-78.69994462329981,35.7303696834125,0
-78.69989936625407,35.730408655665464,0
-78.699883151499,35.73042370151385,0
-78.69983429082745,35.730460346274704,0
-78.69982237679244,35.73046894973097,0
-78.69981149342317,35.73047970890579,0
-78.69979678833508,35.73049202680504,0
-78.6997792962434,35.73050154233442,0
-78.69976500596951,35.73051191713561,0
-78.69974715110246,35.73052156070476,0
-78.69968446638094,35.73053855246545,0
-78.69966181151423,35.73054323020817,0
-78.6996363637472,35.73054658748012,0
-78.69960989047861,35.73054564324391,0
-78.69956188460102,35.73053984213075,0
-78.69949574888442,35.73052561147217,0
-78.69943575548851,35.730511362486,0
-78.69937624393901,35.730495285673136,0
-78.69933714998938,35.730485293489245,0
-78.69926907357335,35.73047352816917,0
-78.69920339901873,35.73046445538491,0
-78.69917700970032,35.73046170350986,0
-78.69915180227177,35.730457565290635,0
-78.69912732828699,35.730455389412946,0
-78.69905617075247,35.73045359151367,0
-78.69898653299204,35.730453290278774,0
-78.69892023112654,35.73045458352601,0
-78.69884845989293,35.730458082064956,0
-78.69877663344079,35.730461887577086,0
-78.69870669115126,35.73046428889525,0
-78.69863917553704,35.73046618600367,0
-78.69857237776401,35.730468891132794,0
-78.69850228018929,35.730469691547626,0
-78.69843342780437,35.73046948940077,0
-78.69841022957664,35.73046888360127,0
-78.69833607583665,35.73047248120256,0
-78.69827994035458,35.73047558733658,0
-78.69820075801195,35.730478386690386,0
-78.69813258224656,35.730480966638424,0
-78.69807125961712,35.73048623703893,0
-78.69800168523474,35.73049513371842,0
-78.69797535455245,35.73049858234544,0
-78.69790080732139,35.73050247265637,0
-78.69782629891587,35.73050804450864,0
-78.697796430232,35.73051157797753,0
-78.69773448840712,35.730515491566564,0
-78.69767590321892,35.7305153907948,0
-78.69759704651398,35.73051658275968,0
-78.69756706622503,35.730518087565635,0
-78.6974971379889,35.73051568195256,0
-78.69743540569048,35.73051238880589,0
-78.69737230913682,35.73051058536604,0
-78.69729507417277,35.73050727825497,0
-78.69727064729166,35.730505724492964,0
-78.69721201945549,35.73049738814935,0
-78.6972025,35.73049559157642,0
-78.6971909116709,35.73049557404918,0
-78.6971325087901,35.730491365862484,0
-78.69707054860325,35.730485949966656,0
-78.69700493068035,35.730478635793055,0
-78.69698377101908,35.730475809778184,0
-78.69696213324482,35.73046913852932,0
-78.69694294897405,35.73045856975358,0
-78.69653709780222,35.73035221660843,0
-78.69567642291929,35.72918280617304,0
-78.69560615465187,35.72828509217935,0
-78.69580633616232,35.72788917117856,0
-78.69617349893652,35.72755704426744,0
-78.69618796377603,35.727442614970286,0
-78.6961060175018,35.72742335209777,0
-78.6960329198081,35.7274031242775,0
-78.696066488756,35.72721288673321,0</coordinates>
          </LinearRing>
        </outerBoundaryIs>
      </Polygon>
    </Placemark>
  </Document>
</kml>
